SPACEMOBILE-004         
1 61049U 24163E   26193.00710093  .00011603  00000+0  53337-3 0  9991
2 61049  52.9667 194.7854 0006095 215.6608 144.3979 15.20795354101542
CZ-8A R/B               
1 66004U 25231K   26193.55623773 -.00000098  00000+0  23600-4 0  9990
2 66004  50.0049 291.3864 0116523 313.3185  45.8061 14.30161741 38576
SZ-21 MODULE            
1 66515U 25246C   26193.22249502  .00034298  00000+0  19171-3 0  9996
2 66515  41.4697 151.1451 0007591 200.3493 159.7051 15.78595026 37698
SPACEMOBILE-006         
1 67232U 25309A   26193.11775960  .00000291  00000+0  29209-4 0  9993
2 67232  52.9937 217.4329 0010353 205.0874 154.9618 15.18648870 30389
SPACEMOBILE-008         
1 69589U 26139A   26193.04775322 -.00000030  00000+0  15283-4 0  9995
2 69589  52.9943 149.6970 0004916  49.0948 311.0468 15.12799678  3743
SPACEMOBILE-009         
1 69590U 26139B   26193.51198480 -.00000107  00000+0  10977-4 0  9993
2 69590  52.9935 147.6033 0005188  45.7996 314.3420 15.12693207  3815
SPACEMOBILE-010         
1 69591U 26139C   26193.25048891 -.00000055  00000+0  13955-4 0  9996
2 69591  52.9941 148.8229 0005089  36.8911 323.2429 15.12524273  3781
